[{"OBJECT_NAME":"YAOGAN-40 03A","OBJECT_ID":"2025-199A","EPOCH":"2026-03-09T23:03:31.278816","MEAN_MOTION":14.26419606,"ECCENTRICITY":0.00148498,"INCLINATION":85.9829,"RA_OF_ASC_NODE":86.7514,"ARG_OF_PERICENTER":35.6299,"MEAN_ANOMALY":324.588,"EPHEMERIS_TYPE":0,"CLASSIFICATION_TYPE":"U","NORAD_CAT_ID":65544,"ELEMENT_SET_NO":999,"REV_AT_EPOCH":2627,"BSTAR":0.00017546994,"MEAN_MOTION_DOT":4.42e-6,"MEAN_MOTION_DDOT":0},{"OBJECT_NAME":"CZ-6A DEB","OBJECT_ID":"2024-140QX","EPOCH":"2026-03-09T14:13:08.315040","MEAN_MOTION":14.22186198,"ECCENTRICITY":0.0043312,"INCLINATION":88.9997,"RA_OF_ASC_NODE":286.0327,"ARG_OF_PERICENTER":163.3037,"MEAN_ANOMALY":196.9593,"EPHEMERIS_TYPE":0,"CLASSIFICATION_TYPE":"U","NORAD_CAT_ID":61153,"ELEMENT_SET_NO":999,"REV_AT_EPOCH":8022,"BSTAR":0.00058927,"MEAN_MOTION_DOT":1.333e-5,"MEAN_MOTION_DDOT":0}]
